[
    {
        "Altitude(m)": 604969.089129404,
        "Argument of Periapsis(deg)": 0.0,
        "Eccentricity": 0.0,
        "Inclination(deg)": 60.0,
        "Latitude(deg)": -0.09265491810827424,
        "Longitude(deg)": -165.02247254530695,
        "Mean Anomaly(deg)": 0.0,
        "RAAN(deg)": 295.00000000000006,
        "Satellite Name": "Test1 1298",
        "Satellite Number": 1298,
        "Semi-Major Axis(m)": 6980739.136638005,
        "Time(s)": 0
    },
    {
        "Altitude(m)": 604900.0286637426,
        "Argument of Periapsis(deg)": 0.00010418945913296404,
        "Eccentricity": 0.0,
        "Inclination(deg)": 60.0,
        "Latitude(deg)": 0.4477705369153651,
        "Longitude(deg)": -164.75434863946916,
        "Mean Anomaly(deg)": 0.620106145461853,
        "RAAN(deg)": 294.99957995086027,
        "Satellite Name": "Test1 1298",
        "Satellite Number": 1298,
        "Semi-Major Axis(m)": 6980739.136638005,
        "Time(s)": 10
    }
]